      2.10          N: GNSS NAV DATA                        RINEX VERSION / TYPE
fic2rin                                 11/27/2022 00:17:40 PGM / RUN BY / DATE
                                                            END OF HEADER
19 22 11 26  4  0  0.0  .242340844125D-03  .511590769747D-11  .000000000000D+00
     .720000000000D+02  .964062500000D+02  .440625496678D-08 -.130238728884D+01
     .516325235367D-05  .901912583504D-02  .140070915222D-05  .515373616982D+04
     .532800000000D+06 -.113621354103D-06 -.159298853220D+01 -.279396772385D-07
     .975350698494D+00  .364531250000D+03  .221448292517D+01 -.831891794490D-08
     .275011455331D-09  .100000000000D+01  .223700000000D+04  .000000000000D+00
     .240000000000D+01  .000000000000D+00 -.153668224812D-07  .720000000000D+02
     .525600000000D+06  .400000000000D+01
18 22 11 26  4  0  0.0 -.358484685421D-04 -.142108547152D-10  .000000000000D+00
     .380000000000D+02 -.105093750000D+03  .443304179684D-08  .805613156016D+00
    -.549107789993D-05  .296523212455D-02  .666826963425D-06  .515371530724D+04
     .532800000000D+06 -.186264514923D-08 -.633113034648D+00  .130385160446D-07
     .972959814905D+00  .370250000000D+03 -.313364996663D+01 -.838427781025D-08
    -.315370279295D-09  .100000000000D+01  .223700000000D+04  .000000000000D+00
     .240000000000D+01  .000000000000D+00 -.838190317154D-08  .294000000000D+03
     .525600000000D+06  .400000000000D+01
23 22 11 26  4  0  0.0 -.728294253349D-06  .341060513165D-12  .000000000000D+00
     .890000000000D+02 -.139750000000D+03  .390480550797D-08 -.185867403655D+00
    -.736303627491D-05  .290185853373D-02  .102873891592D-04  .515364521980D+04
     .532800000000D+06  .838190317154D-07  .365998086707D+00  .186264514923D-07
     .971558125799D+00  .190031250000D+03  .308939795284D+01 -.766424781811D-08
     .975040614355D-10  .100000000000D+01  .223700000000D+04  .000000000000D+00
     .240000000000D+01  .000000000000D+00 -.838190317154D-08  .601000000000D+03
     .525600000000D+06  .400000000000D+01
4  22 11 26  5 14 40.0 -.797705724835D-04  .682121026330D-11  .000000000000D+00
     .179000000000D+03  .462500000000D+01  .467233747875D-08 -.310121793447D+01
     .227242708206D-06  .218477379531D-02  .750087201595D-05  .515372784805D+04
     .537280000000D+06 -.149011611938D-07  .147616768150D+01 -.596046447754D-07
     .961537953264D+00  .235875000000D+03 -.311855429052D+01 -.787461372356D-08
     .527521973408D-09  .100000000000D+01  .223700000000D+04  .000000000000D+00
     .240000000000D+01  .000000000000D+00 -.465661287308D-08  .435000000000D+03
     .530130000000D+06  .400000000000D+01
23 22 11 26  5 14 40.0 -.725965946913D-06  .341060513165D-12  .000000000000D+00
     .900000000000D+02 -.141500000000D+03  .401016703955D-08  .467645959240D+00
    -.741146504879D-05  .290075014345D-02  .105034559965D-04  .515364313698D+04
     .537280000000D+06  .260770320892D-07  .365963633523D+00  .149011611938D-07
     .971558377420D+00  .181687500000D+03  .308933917279D+01 -.770924969262D-08
     .982183769039D-10  .100000000000D+01  .223700000000D+04  .000000000000D+00
     .240000000000D+01  .000000000000D+00 -.838190317154D-08  .602000000000D+03
     .530130000000D+06  .400000000000D+01
2  22 11 26  6  0  0.0 -.636085402220D-03  .181898940355D-11  .000000000000D+00
     .140000000000D+02 -.869687500000D+02  .478555648049D-08  .743882378418D+00
    -.481680035591D-05  .200190894539D-01  .110082328320D-05  .515369603539D+04
     .540000000000D+06 -.294297933578D-06 -.731903446351D+00 -.236555933952D-06
     .966838879349D+00  .367093750000D+03 -.136050767531D+01 -.881393856449D-08
    -.198936857947D-09  .100000000000D+01  .223700000000D+04  .000000000000D+00
     .240000000000D+01  .000000000000D+00 -.176951289177D-07  .140000000000D+02
     .532800000000D+06  .400000000000D+01
1  22 11 26  6  0  0.0  .246320851147D-03 -.545696821064D-11  .000000000000D+00
     .106000000000D+03 -.868125000000D+02  .412802909184D-08  .168200340052D+01
    -.466778874397D-05  .120784478495D-01  .141188502312D-05  .515365575409D+04
     .540000000000D+06 -.247731804848D-06 -.636824065753D+00 -.447034835815D-07
     .989096267990D+00  .369281250000D+03  .941128998189D+00 -.815069665209D-08
    -.194293807403D-09  .100000000000D+01  .223700000000D+04  .000000000000D+00
     .340000000000D+01  .000000000000D+00  .465661287308D-08  .106000000000D+03
     .532800000000D+06  .400000000000D+01
5  22 11 26  6  0  0.0 -.105734448880D-03 -.147792889038D-11  .000000000000D+00
     .190000000000D+02 -.118750000000D+03  .410088510404D-08 -.206907748175D+01
    -.616908073425D-05  .587008858565D-02  .104904174805D-04  .515357524300D+04
     .540000000000D+06  .819563865662D-07  .350769742945D+00 -.260770320892D-07
     .963712440549D+00  .176750000000D+03  .114198732570D+01 -.764246119633D-08
     .183936233111D-09  .100000000000D+01  .223700000000D+04  .000000000000D+00
     .240000000000D+01  .000000000000D+00 -.111758708954D-07  .190000000000D+02
     .532800000000D+06  .400000000000D+01
3  22 11 26  6  0  0.0 -.374280381948D-03 -.113686837722D-11  .000000000000D+00
     .990000000000D+02 -.118437500000D+03  .392909223389D-08  .556383686517D+00
    -.622868537903D-05  .441933295224D-02  .972859561443D-05  .515377353668D+04
     .540000000000D+06 -.428408384323D-07  .394907404816D+00  .447034835815D-07
     .976669725414D+00  .200781250000D+03  .104973042318D+01 -.765889045210D-08
     .138220043134D-09  .100000000000D+01  .223700000000D+04  .000000000000D+00
     .340000000000D+01  .000000000000D+00  .186264514923D-08  .990000000000D+02
     .532800000000D+06  .400000000000D+01
12 22 11 26  6  0  0.0 -.308698043227D-03 -.454747350886D-11  .000000000000D+00
     .510000000000D+02  .111906250000D+03  .407016953890D-08  .318830395263D+00
     .564754009247D-05  .864204298705D-02  .104494392872D-04  .515371086502D+04
     .540000000000D+06 -.106170773506D-06 -.267660854548D+01  .558793544769D-08
     .967649196987D+00  .184593750000D+03  .131770308584D+01 -.777318092704D-08
    -.285369029623D-09  .100000000000D+01  .223700000000D+04  .000000000000D+00
     .340000000000D+01  .000000000000D+00 -.125728547573D-07  .510000000000D+02
     .532800000000D+06  .400000000000D+01
8  22 11 26  6  0  0.0 -.956580042839D-04 -.193267624127D-11  .000000000000D+00
     .730000000000D+02  .142750000000D+03  .454054627483D-08 -.233214544822D+01
     .722520053387D-05  .784678780474D-02  .342354178429D-05  .515362593079D+04
     .540000000000D+06 -.782310962677D-07 -.172401964832D+01 -.165775418282D-06
     .961033866804D+00  .317187500000D+03  .168427380842D+00 -.822677124947D-08
     .333585323739D-09  .100000000000D+01  .223700000000D+04  .000000000000D+00
     .240000000000D+01  .000000000000D+00  .512227416039D-08  .730000000000D+02
     .532800000000D+06  .400000000000D+01
7  22 11 26  6  0  0.0  .282678753138D-03 -.488853402203D-11  .000000000000D+00
     .490000000000D+02 -.139062500000D+02  .512842790532D-08  .106469014007D+01
    -.605359673500D-06  .164733934216D-01  .692531466484D-05  .515360639381D+04
     .540000000000D+06 -.214204192162D-06  .249292933811D+01  .113621354103D-06
     .950460358672D+00  .245593750000D+03 -.223662381433D+01 -.837249160502D-08
    -.584310053145D-09  .100000000000D+01  .223700000000D+04  .000000000000D+00
     .240000000000D+01  .000000000000D+00 -.111758708954D-07  .490000000000D+02
     .532800000000D+06  .400000000000D+01
6  22 11 26  6  0  0.0  .527005176991D-03  .864019966684D-11  .000000000000D+00
     .740000000000D+02 -.958125000000D+02  .401481009010D-08  .196516324629D+01
    -.488944351673D-05  .266309781000D-02  .155158340931D-05  .515356778145D+04
     .540000000000D+06  .800937414169D-07 -.645109885999D+00 -.763684511185D-07
     .988370498238D+00  .360875000000D+03 -.915547359354D+00 -.807247910830D-08
    -.260725145963D-09  .100000000000D+01  .223700000000D+04  .000000000000D+00
     .240000000000D+01  .000000000000D+00  .372529029846D-08  .740000000000D+02
     .532800000000D+06  .400000000000D+01
4  22 11 26  6  0  0.0 -.797519460320D-04  .682121026330D-11  .000000000000D+00
     .180000000000D+03  .256250000000D+01  .466733727047D-08 -.270455067871D+01
     .115483999252D-06  .218527065590D-02  .769644975662D-05  .515372691917D+04
     .540000000000D+06  .149011611938D-07  .147614635215D+01 -.316649675369D-07
     .961539499568D+00  .232343750000D+03 -.311849855773D+01 -.784639826255D-08
     .521450291926D-09  .100000000000D+01  .223700000000D+04  .000000000000D+00
     .240000000000D+01  .000000000000D+00 -.465661287308D-08  .436000000000D+03
     .532800000000D+06  .400000000000D+01
9  22 11 26  6  0  0.0 -.263005029410D-03  .579802872380D-11  .000000000000D+00
     .650000000000D+02  .237500000000D+01  .481412909923D-08 -.198740741307D+01
     .949949026108D-07  .265173311345D-02  .774860382080D-05  .515371350861D+04
     .540000000000D+06 -.372529029846D-08  .142089075572D+01  .111758708954D-07
     .954728270025D+00  .227562500000D+03  .193579856128D+01 -.797211778499D-08
     .517521556850D-09  .100000000000D+01  .223700000000D+04  .000000000000D+00
     .240000000000D+01  .000000000000D+00  .931322574615D-09  .650000000000D+02
     .532800000000D+06  .400000000000D+01
26 22 11 26  6  0  0.0  .236864667386D-03  .102318153949D-11  .000000000000D+00
     .130000000000D+02  .852187500000D+02  .477234164433D-08 -.569548129360D+00
     .444240868092D-05  .752303784247D-02  .111013650894D-04  .515359954643D+04
     .540000000000D+06  .113621354103D-06 -.280897942246D+01  .931322574615D-08
     .936059334583D+00  .150062500000D+03  .399624117491D+00 -.804997817105D-08
    -.443589905872D-09  .100000000000D+01  .223700000000D+04  .000000000000D+00
     .240000000000D+01  .000000000000D+00  .698491930962D-08  .130000000000D+02
     .532800000000D+06  .400000000000D+01
